[{"OBJECT_NAME":"STARLINK-4707","OBJECT_ID":"2022-107X","EPOCH":"2026-03-09T22:33:01.798560","MEAN_MOTION":15.08836989,"ECCENTRICITY":0.00012458,"INCLINATION":53.2157,"RA_OF_ASC_NODE":252.836,"ARG_OF_PERICENTER":94.8491,"MEAN_ANOMALY":265.2644,"EPHEMERIS_TYPE":0,"CLASSIFICATION_TYPE":"U","NORAD_CAT_ID":53721,"ELEMENT_SET_NO":999,"REV_AT_EPOCH":19445,"BSTAR":0.00011986102,"MEAN_MOTION_DOT":1.62e-5,"MEAN_MOTION_DDOT":0},{"OBJECT_NAME":"MAGION 2","OBJECT_ID":"1989-080B","EPOCH":"2026-03-09T12:12:11.295648","MEAN_MOTION":12.6287073,"ECCENTRICITY":0.11724729,"INCLINATION":82.5971,"RA_OF_ASC_NODE":77.6425,"ARG_OF_PERICENTER":188.581,"MEAN_ANOMALY":169.3566,"EPHEMERIS_TYPE":0,"CLASSIFICATION_TYPE":"U","NORAD_CAT_ID":20281,"ELEMENT_SET_NO":999,"REV_AT_EPOCH":66949,"BSTAR":0.0001812215,"MEAN_MOTION_DOT":6.35e-6,"MEAN_MOTION_DDOT":0}]
